NORAD_CAT_ID,OBJECT_NAME,OBJECT_TYPE,EPOCH,MEAN_MOTION,ECCENTRICITY,INCLINATION,RA_OF_ASC_NODE,ARG_OF_PERICENTER,MEAN_ANOMALY,BSTAR,MEAN_MOTION_DOT,MEAN_MOTION_DDOT,TLE_LINE0,TLE_LINE1,TLE_LINE2,SEMIMAJOR_AXIS,PERIOD,APOGEE,PERIGEE,DECAYED
53641.0,STARLINK-4588,PAYLOAD,2023-12-21 22:35:31,15.08846662,0.0001522,53.2174,254.6043,102.8256,257.2907,0.00015672,2.208e-05,0.0,0 STARLINK-4588,1 53641U 22104BF  23355.94133591  .00002208  00000-0  15672-3 0  9997,2 53641  53.2174 254.6043 0001522 102.8256 257.2907 15.08846662 74134,6917.86,95.437,540.778,538.672,0.0
53641.0,STARLINK-4588,PAYLOAD,2023-12-22 00:10:54,15.088468,0.0001687,53.2174,254.3044,110.1255,249.9919,0.00015656,2.205e-05,0.0,0 STARLINK-4588,1 53641U 22104BF  23356.00757553  .00002205  00000-0  15656-3 0  9994,2 53641  53.2174 254.3044 0001687 110.1255 249.9919 15.08846800 73128,6917.86,95.437,540.892,538.558,0.0
53641.0,STARLINK-4588,PAYLOAD,2023-12-22 22:26:18,15.08840255,0.0001553,53.2163,250.1366,101.4107,258.706,9.9464e-06,-1.3e-06,0.0,0 STARLINK-4588,1 53641U 22104BF  23356.93493782 -.00000130  00000-0  99464-5 0  9994,2 53641  53.2163 250.1366 0001553 101.4107 258.7060 15.08840255 74289,6917.88,95.438,540.819,538.67,0.0
53641.0,STARLINK-4588,PAYLOAD,2023-12-23 03:12:27,15.08843664,0.000159,53.2166,249.2394,106.5736,253.5431,7.2563e-05,8.67e-06,0.0,0 STARLINK-4588,1 53641U 22104BF  23357.13365566  .00000867  00000-0  72563-4 0  9991,2 53641  53.2166 249.2394 0001590 106.5736 253.5431 15.08843664 73299,6917.869,95.437,540.834,538.634,0.0
53641.0,STARLINK-4588,PAYLOAD,2023-12-23 22:17:06,15.08832021,0.0001705,53.2167,245.6688,104.2356,255.8825,0.00015384,2.161e-05,0.0,0 STARLINK-4588,1 53641U 22104BF  23357.92854397  .00002161  00000-0  15384-3 0  9999,2 53641  53.2167 245.6688 0001705 104.2356 255.8825 15.08832021 74431,6917.905,95.438,540.949,538.59,0.0
53641.0,STARLINK-4588,PAYLOAD,2023-12-23 23:52:29,15.08835812,0.0001626,53.2162,245.377,102.319,257.7984,9.0863e-05,1.158e-05,0.0,0 STARLINK-4588,1 53641U 22104BF  23357.99478279  .00001158  00000-0  90863-4 0  9998,2 53641  53.2162 245.3770 0001626 102.3190 257.7984 15.08835812 73428,6917.893,95.438,540.883,538.633,0.0
53641.0,STARLINK-4588,PAYLOAD,2023-12-24 22:07:53,15.08843233,0.0001541,53.2164,241.2178,100.7263,259.3902,0.00011307,1.512e-05,0.0,0 STARLINK-4588,1 53641U 22104BF  23358.92214192  .00001512  00000-0  11307-3 0  9993,2 53641  53.2164 241.2178 0001541 100.7263 259.3902 15.08843233 74588,6917.871,95.437,540.802,538.669,0.0
53641.0,STARLINK-4588,PAYLOAD,2023-12-25 01:18:38,15.08853747,0.0001608,53.2158,240.6169,136.529,223.5829,0.00027551,4.101e-05,0.0,0 STARLINK-4588,1 53641U 22104BF  23359.05461364  .00004101  00000-0  27551-3 0  9998,2 53641  53.2158 240.6169 0001608 136.5290 223.5829 15.08853747 73586,6917.838,95.437,540.816,538.591,0.0
53641.0,STARLINK-4588,PAYLOAD,2023-12-25 20:23:18,15.08820837,9.57e-05,53.2163,237.0552,101.4043,258.7057,-0.0001312,-2.374e-05,0.0,0 STARLINK-4588,1 53641U 22104BF  23359.84951852 -.00002374  00000-0 -13120-3 0  9990,2 53641  53.2163 237.0552 0000957 101.4043 258.7057 15.08820837 73702,6917.939,95.439,540.466,539.142,0.0
53641.0,STARLINK-4588,PAYLOAD,2023-12-25 21:58:41,15.08823532,0.0001349,53.216,236.7579,107.5828,252.5312,-9.6815e-05,-1.828e-05,0.0,0 STARLINK-4588,1 53641U 22104BF  23359.91575807 -.00001828  00000-0 -96815-4 0  9996,2 53641  53.2160 236.7579 0001349 107.5828 252.5312 15.08823532 74733,6917.931,95.439,540.729,538.862,0.0
53641.0,STARLINK-4588,PAYLOAD,2023-12-26 01:09:28,15.08822526,0.000128,53.2157,236.1622,87.446,272.6679,-8.9619e-05,-1.713e-05,0.0,0 STARLINK-4588,1 53641U 22104BF  23360.04824087 -.00001713  00000-0 -89619-4 0  9996,2 53641  53.2157 236.1622 0001280  87.4460 272.6679 15.08822526 74757,6917.934,95.439,540.684,538.913,0.0
53641.0,STARLINK-4588,PAYLOAD,2023-12-26 20:14:05,15.088412,0.0001032,53.2159,232.5931,69.9834,290.127,0.0001302,1.785e-05,0.0,0 STARLINK-4588,1 53641U 22104BF  23360.84311418  .00001785  00000-0  13020-3 0  9992,2 53641  53.2159 232.5931 0001032  69.9834 290.1270 15.08841200 73859,6917.877,95.437,540.456,539.028,0.0
53641.0,STARLINK-4588,PAYLOAD,2023-12-26 21:49:28,15.08842006,0.000152,53.2148,232.3,50.0064,310.1062,0.00021939,3.206e-05,0.0,0 STARLINK-4588,1 53641U 22104BF  23360.90935526  .00003206  00000-0  21939-3 0  9999,2 53641  53.2148 232.3000 0001520  50.0064 310.1062 15.08842006 74881,6917.874,95.437,540.791,538.688,0.0
53641.0,STARLINK-4588,PAYLOAD,2023-12-27 01:00:14,15.0885434,0.0001256,53.2161,231.6993,79.5196,280.5937,0.0003352,5.053e-05,0.0,0 STARLINK-4588,1 53641U 22104BF  23361.04182882  .00005053  00000-0  33520-3 0  9995,2 53641  53.2161 231.6993 0001256  79.5196 280.5937 15.08854340 73881,6917.837,95.437,540.57,538.833,0.0
53641.0,STARLINK-4588,PAYLOAD,2023-12-27 20:04:51,15.08847457,0.0001241,53.2143,228.129,104.8652,255.2477,0.00033252,5.009e-05,0.0,0 STARLINK-4588,1 53641U 22104BF  23361.83671293  .00005009  00000-0  33252-3 0  9994,2 53641  53.2143 228.1290 0001241 104.8652 255.2477 15.08847457 74009,6917.858,95.437,540.581,538.864,0.0
53641.0,STARLINK-4588,PAYLOAD,2023-12-27 21:40:15,15.0884682,0.000131,53.2152,227.8319,94.4038,265.7103,0.00036494,5.526e-05,0.0,0 STARLINK-4588,1 53641U 22104BF  23361.90295468  .00005526  00000-0  36494-3 0  9993,2 53641  53.2152 227.8319 0001310  94.4038 265.7103 15.08846820 75035,6917.86,95.437,540.631,538.818,0.0
53641.0,STARLINK-4588,PAYLOAD,2023-12-28 21:31:01,15.08854699,0.0001279,53.2141,223.3716,87.1928,272.9211,2.706e-05,1.43e-06,0.0,0 STARLINK-4588,1 53641U 22104BF  23362.89654429  .00000143  00000-0  27060-4 0  9998,2 53641  53.2141 223.3716 0001279  87.1928 272.9211 15.08854699 75185,6917.835,95.437,540.585,538.816,0.0
53641.0,STARLINK-4588,PAYLOAD,2023-12-29 00:41:47,15.08853994,0.0001293,53.2141,222.7769,89.9889,270.1252,6.09e-05,6.82e-06,0.0,0 STARLINK-4588,1 53641U 22104BF  23363.02902351  .00000682  00000-0  60900-4 0  9992,2 53641  53.2141 222.7769 0001293  89.9889 270.1252 15.08853994 74189,6917.838,95.437,540.597,538.808,0.0
53641.0,STARLINK-4588,PAYLOAD,2023-12-29 19:46:25,15.08842124,0.0001554,53.2163,219.2066,98.2139,261.9029,-6.2029e-06,-3.87e-06,0.0,0 STARLINK-4588,1 53641U 22104BF  23363.82390928 -.00000387  00000-0 -62029-5 0  9990,2 53641  53.2163 219.2066 0001554  98.2139 261.9029 15.08842124 74302,6917.874,95.437,540.814,538.664,0.0
53641.0,STARLINK-4588,PAYLOAD,2023-12-29 21:21:48,15.08841735,0.0001533,53.2164,218.9094,94.5065,265.6102,-1.8317e-05,-5.8e-06,0.0,0 STARLINK-4588,1 53641U 22104BF  23363.89014923 -.00000580  00000-0 -18317-4 0  9990,2 53641  53.2164 218.9094 0001533  94.5065 265.6102 15.08841735 75338,6917.875,95.437,540.801,538.68,0.0
53641.0,STARLINK-4588,PAYLOAD,2023-12-30 14:51:01,15.08852259,0.0001341,53.2154,215.6342,102.0992,258.015,0.00025093,3.709e-05,0.0,0 STARLINK-4588,1 53641U 22104BF  23364.61876906  .00003709  00000-0  25093-3 0  9990,2 53641  53.2154 215.6342 0001341 102.0992 258.0150 15.08852259 75442,6917.843,95.437,540.636,538.78,0.0
53641.0,STARLINK-4588,PAYLOAD,2023-12-30 19:37:10,15.08864063,0.0001236,53.2147,214.7424,77.955,282.158,0.00016598,2.356e-05,0.0,0 STARLINK-4588,1 53641U 22104BF  23364.81748486  .00002356  00000-0  16598-3 0  9990,2 53641  53.2147 214.7424 0001236  77.9550 282.1580 15.08864063 74459,6917.807,95.436,540.527,538.817,0.0
53641.0,STARLINK-4588,PAYLOAD,2023-12-30 21:12:33,15.08864456,0.0001253,53.215,214.4452,84.5865,275.527,0.00017648,2.524e-05,0.0,0 STARLINK-4588,1 53641U 22104BF  23364.88372341  .00002524  00000-0  17648-3 0  9994,2 53641  53.2150 214.4452 0001253  84.5865 275.5270 15.08864456 75485,6917.806,95.436,540.537,538.804,0.0
53641.0,STARLINK-4588,PAYLOAD,2023-12-31 19:27:58,15.08838337,0.0001218,53.2145,210.2874,85.6818,274.4313,-0.00014552,-2.603e-05,0.0,0 STARLINK-4588,1 53641U 22104BF  23365.81109873 -.00002603  00000-0 -14552-3 0  9997,2 53641  53.2145 210.2874 0001218  85.6818 274.4313 15.08838337 74600,6917.885,95.438,540.593,538.908,0.0
53641.0,STARLINK-4588,PAYLOAD,2023-12-31 22:38:45,15.08834045,0.0001241,53.2142,209.692,91.5373,268.5761,-0.00020447,-3.54e-05,0.0,0 STARLINK-4588,1 53641U 22104BF  23365.94358035 -.00003540  00000-0 -20447-3 0  9998,2 53641  53.2142 209.6920 0001241  91.5373 268.5761 15.08834045 75647,6917.899,95.438,540.622,538.905,0.0
53641.0,STARLINK-4588,PAYLOAD,2024-01-01 22:29:33,15.08838561,0.0001424,53.2159,205.2288,101.0042,259.1111,-7.1997e-05,-1.434e-05,0.0,0 STARLINK-4588,1 53641U 22104BF  24001.93718759 -.00001434  00000-0 -71997-4 0  9995,2 53641  53.2159 205.2288 0001424 101.0042 259.1111 15.08838561 75795,6917.885,95.438,540.735,538.765,0.0
53641.0,STARLINK-4588,PAYLOAD,2024-01-02 00:04:56,15.08837925,0.0001412,53.216,204.9351,102.0639,258.0511,-6.5358e-05,-1.328e-05,0.0,0 STARLINK-4588,1 53641U 22104BF  24002.00342824 -.00001328  00000-0 -65358-4 0  9996,2 53641  53.2160 204.9351 0001412 102.0639 258.0511 15.08837925 74787,6917.887,95.438,540.729,538.775,0.0
53641.0,STARLINK-4588,PAYLOAD,2024-01-02 20:44:57,15.08832173,0.000138,53.2151,201.0698,95.5859,264.529,0.00020944,3.046e-05,0.0,0 STARLINK-4588,1 53641U 22104BF  24002.86455437  .00003046  00000-0  20944-3 0  9993,2 53641  53.2151 201.0698 0001380  95.5859 264.5290 15.08832173 75937,6917.904,95.438,540.724,538.815,0.0
53641.0,STARLINK-4588,PAYLOAD,2024-01-03 19:00:21,15.08841568,0.0001374,53.215,196.9068,93.538,266.5769,0.00022339,3.269e-05,0.0,0 STARLINK-4588,1 53641U 22104BF  24003.79191410  .00003269  00000-0  22339-3 0  9991,2 53641  53.2150 196.9068 0001374  93.5380 266.5769 15.08841568 75053,6917.876,95.437,540.691,538.79,0.0
53641.0,STARLINK-4588,PAYLOAD,2024-01-04 18:51:08,15.0883912,0.0001374,53.2148,192.4452,91.9621,268.1529,8.5456e-05,1.072e-05,0.0,0 STARLINK-4588,1 53641U 22104BF  24004.78551740  .00001072  00000-0  85456-4 0  9997,2 53641  53.2148 192.4452 0001374  91.9621 268.1529 15.08839120 75208,6917.883,95.438,540.699,538.798,0.0
